[{"OBJECT_NAME":"COSMOS 2251 DEB","OBJECT_ID":"1993-036FR","EPOCH":"2026-03-14T09:09:25.323840","MEAN_MOTION":14.6078329,"ECCENTRICITY":0.00754613,"INCLINATION":74.0711,"RA_OF_ASC_NODE":185.2685,"ARG_OF_PERICENTER":207.8364,"MEAN_ANOMALY":214.9119,"EPHEMERIS_TYPE":0,"CLASSIFICATION_TYPE":"U","NORAD_CAT_ID":33982,"ELEMENT_SET_NO":999,"REV_AT_EPOCH":90497,"BSTAR":0.00062209688,"MEAN_MOTION_DOT":3.131e-5,"MEAN_MOTION_DDOT":0},{"OBJECT_NAME":"COSMOS 2251 DEB","OBJECT_ID":"1993-036FS","EPOCH":"2026-03-14T04:25:40.273824","MEAN_MOTION":14.51093807,"ECCENTRICITY":0.00192575,"INCLINATION":74.0529,"RA_OF_ASC_NODE":335.233,"ARG_OF_PERICENTER":53.8511,"MEAN_ANOMALY":65.073,"EPHEMERIS_TYPE":0,"CLASSIFICATION_TYPE":"U","NORAD_CAT_ID":33983,"ELEMENT_SET_NO":999,"REV_AT_EPOCH":89955,"BSTAR":0.00046152286,"MEAN_MOTION_DOT":1.806e-5,"MEAN_MOTION_DDOT":0},{"OBJECT_NAME":"COSMOS 2251 DEB","OBJECT_ID":"1993-036FT","EPOCH":"2026-03-14T12:19:20.440128","MEAN_MOTION":14.67369526,"ECCENTRICITY":0.00246013,"INCLINATION":74.0089,"RA_OF_ASC_NODE":169.7529,"ARG_OF_PERICENTER":335.7081,"MEAN_ANOMALY":39.9299,"EPHEMERIS_TYPE":0,"CLASSIFICATION_TYPE":"U","NORAD_CAT_ID":33984,"ELEMENT_SET_NO":999,"REV_AT_EPOCH":90412,"BSTAR":0.00095921669,"MEAN_MOTION_DOT":5.417e-5,"MEAN_MOTION_DDOT":0},{"OBJECT_NAME":"COSMOS 2251 DEB","OBJECT_ID":"1993-036FV","EPOCH":"2026-03-13T20:52:57.205056","MEAN_MOTION":14.43721511,"ECCENTRICITY":0.00411445,"INCLINATION":74.0353,"RA_OF_ASC_NODE":133.3364,"ARG_OF_PERICENTER":189.9098,"MEAN_ANOMALY":287.8664,"EPHEMERIS_TYPE":0,"CLASSIFICATION_TYPE":"U","NORAD_CAT_ID":33986,"ELEMENT_SET_NO":999,"REV_AT_EPOCH":89343,"BSTAR":0.00052352151,"MEAN_MOTION_DOT":1.771e-5,"MEAN_MOTION_DDOT":0},{"OBJECT_NAME":"COSMOS 2251 DEB","OBJECT_ID":"1993-036FZ","EPOCH":"2026-03-14T14:41:04.670304","MEAN_MOTION":13.50155768,"ECCENTRICITY":0.04044917,"INCLINATION":73.9274,"RA_OF_ASC_NODE":138.4925,"ARG_OF_PERICENTER":142.051,"MEAN_ANOMALY":18.9198,"EPHEMERIS_TYPE":0,"CLASSIFICATION_TYPE":"U","NORAD_CAT_ID":33990,"ELEMENT_SET_NO":999,"REV_AT_EPOCH":83969,"BSTAR":0.00057065611,"MEAN_MOTION_DOT":5.86e-6,"MEAN_MOTION_DDOT":0},{"OBJECT_NAME":"COSMOS 2251 DEB","OBJECT_ID":"1993-036GB","EPOCH":"2026-03-14T15:30:16.819200","MEAN_MOTION":14.67151215,"ECCENTRICITY":0.00548501,"INCLINATION":74.024,"RA_OF_ASC_NODE":160.3349,"ARG_OF_PERICENTER":256.4553,"MEAN_ANOMALY":264.1961,"EPHEMERIS_TYPE":0,"CLASSIFICATION_TYPE":"U","NORAD_CAT_ID":33992,"ELEMENT_SET_NO":999,"REV_AT_EPOCH":90472,"BSTAR":0.00089301828,"MEAN_MOTION_DOT":5.107e-5,"MEAN_MOTION_DDOT":0},{"OBJECT_NAME":"COSMOS 2251 DEB","OBJECT_ID":"1993-036GD","EPOCH":"2026-03-14T14:55:18.892416","MEAN_MOTION":14.4128816,"ECCENTRICITY":0.00222903,"INCLINATION":74.0453,"RA_OF_ASC_NODE":20.3653,"ARG_OF_PERICENTER":136.7956,"MEAN_ANOMALY":41.1999,"EPHEMERIS_TYPE":0,"CLASSIFICATION_TYPE":"U","NORAD_CAT_ID":33994,"ELEMENT_SET_NO":999,"REV_AT_EPOCH":89743,"BSTAR":0.0001123247,"MEAN_MOTION_DOT":3.38e-6,"MEAN_MOTION_DDOT":0},{"OBJECT_NAME":"COSMOS 2251 DEB","OBJECT_ID":"1993-036GE","EPOCH":"2026-03-14T14:55:56.897184","MEAN_MOTION":14.35302329,"ECCENTRICITY":0.00601944,"INCLINATION":74.0624,"RA_OF_ASC_NODE":311.1878,"ARG_OF_PERICENTER":301.7413,"MEAN_ANOMALY":57.7881,"EPHEMERIS_TYPE":0,"CLASSIFICATION_TYPE":"U","NORAD_CAT_ID":33995,"ELEMENT_SET_NO":999,"REV_AT_EPOCH":88837,"BSTAR":0.00078863743,"MEAN_MOTION_DOT":2.281e-5,"MEAN_MOTION_DDOT":0},{"OBJECT_NAME":"COSMOS 2251 DEB","OBJECT_ID":"1993-036GJ","EPOCH":"2026-03-14T00:32:14.438112","MEAN_MOTION":14.85782425,"ECCENTRICITY":0.00465496,"INCLINATION":73.9171,"RA_OF_ASC_NODE":48.373,"ARG_OF_PERICENTER":278.7366,"MEAN_ANOMALY":80.8541,"EPHEMERIS_TYPE":0,"CLASSIFICATION_TYPE":"U","NORAD_CAT_ID":33999,"ELEMENT_SET_NO":999,"REV_AT_EPOCH":90605,"BSTAR":0.0017129641,"MEAN_MOTION_DOT":0.00015183,"MEAN_MOTION_DDOT":0},{"OBJECT_NAME":"COSMOS 2251 DEB","OBJECT_ID":"1993-036GL","EPOCH":"2026-03-14T13:19:20.664192","MEAN_MOTION":14.37215154,"ECCENTRICITY":0.00200847,"INCLINATION":74.0366,"RA_OF_ASC_NODE":112.7479,"ARG_OF_PERICENTER":179.7936,"MEAN_ANOMALY":331.6463,"EPHEMERIS_TYPE":0,"CLASSIFICATION_TYPE":"U","NORAD_CAT_ID":34001,"ELEMENT_SET_NO":999,"REV_AT_EPOCH":89465,"BSTAR":0.00013912741,"MEAN_MOTION_DOT":3.89e-6,"MEAN_MOTION_DDOT":0},{"OBJECT_NAME":"COSMOS 2251 DEB","OBJECT_ID":"1993-036GN","EPOCH":"2026-03-14T13:48:54.644544","MEAN_MOTION":13.84659094,"ECCENTRICITY":0.02787675,"INCLINATION":74.0769,"RA_OF_ASC_NODE":130.5022,"ARG_OF_PERICENTER":222.0599,"MEAN_ANOMALY":135.8829,"EPHEMERIS_TYPE":0,"CLASSIFICATION_TYPE":"U","NORAD_CAT_ID":34003,"ELEMENT_SET_NO":999,"REV_AT_EPOCH":85696,"BSTAR":0.0017949536,"MEAN_MOTION_DOT":2.705e-5,"MEAN_MOTION_DDOT":0},{"OBJECT_NAME":"COSMOS 2251 DEB","OBJECT_ID":"1993-036GP","EPOCH":"2026-03-14T14:16:21.024192","MEAN_MOTION":14.50000077,"ECCENTRICITY":0.00288829,"INCLINATION":74.035,"RA_OF_ASC_NODE":140.7449,"ARG_OF_PERICENTER":137.7316,"MEAN_ANOMALY":222.6078,"EPHEMERIS_TYPE":0,"CLASSIFICATION_TYPE":"U","NORAD_CAT_ID":34004,"ELEMENT_SET_NO":999,"REV_AT_EPOCH":89361,"BSTAR":0.0010874499,"MEAN_MOTION_DOT":4.209e-5,"MEAN_MOTION_DDOT":0},{"OBJECT_NAME":"COSMOS 2251 DEB","OBJECT_ID":"1993-036GQ","EPOCH":"2026-03-14T07:19:30.330624","MEAN_MOTION":14.40388264,"ECCENTRICITY":0.00197305,"INCLINATION":74.0453,"RA_OF_ASC_NODE":44.4577,"ARG_OF_PERICENTER":146.3628,"MEAN_ANOMALY":282.3243,"EPHEMERIS_TYPE":0,"CLASSIFICATION_TYPE":"U","NORAD_CAT_ID":34005,"ELEMENT_SET_NO":999,"REV_AT_EPOCH":89697,"BSTAR":0.00012934112,"MEAN_MOTION_DOT":3.85e-6,"MEAN_MOTION_DDOT":0},{"OBJECT_NAME":"COSMOS 2251 DEB","OBJECT_ID":"1993-036GR","EPOCH":"2026-03-14T15:50:33.548064","MEAN_MOTION":15.04099178,"ECCENTRICITY":0.00109918,"INCLINATION":74.0514,"RA_OF_ASC_NODE":316.8835,"ARG_OF_PERICENTER":213.251,"MEAN_ANOMALY":177.2975,"EPHEMERIS_TYPE":0,"CLASSIFICATION_TYPE":"U","NORAD_CAT_ID":34006,"ELEMENT_SET_NO":999,"REV_AT_EPOCH":90046,"BSTAR":0.0038104208,"MEAN_MOTION_DOT":0.00053232,"MEAN_MOTION_DDOT":0},{"OBJECT_NAME":"COSMOS 2251 DEB","OBJECT_ID":"1993-036GS","EPOCH":"2026-03-14T14:41:34.626912","MEAN_MOTION":14.65628328,"ECCENTRICITY":0.00476961,"INCLINATION":74.0193,"RA_OF_ASC_NODE":169.9266,"ARG_OF_PERICENTER":281.2828,"MEAN_ANOMALY":78.2983,"EPHEMERIS_TYPE":0,"CLASSIFICATION_TYPE":"U","NORAD_CAT_ID":34007,"ELEMENT_SET_NO":999,"REV_AT_EPOCH":90425,"BSTAR":0.00081500061,"MEAN_MOTION_DOT":4.474e-5,"MEAN_MOTION_DDOT":0},{"OBJECT_NAME":"COSMOS 2251 DEB","OBJECT_ID":"1993-036GT","EPOCH":"2026-03-14T13:55:15.985632","MEAN_MOTION":14.33218246,"ECCENTRICITY":0.00226289,"INCLINATION":74.035,"RA_OF_ASC_NODE":162.6719,"ARG_OF_PERICENTER":140.7657,"MEAN_ANOMALY":332.734,"EPHEMERIS_TYPE":0,"CLASSIFICATION_TYPE":"U","NORAD_CAT_ID":34008,"ELEMENT_SET_NO":999,"REV_AT_EPOCH":89280,"BSTAR":0.00011336917,"MEAN_MOTION_DOT":2.87e-6,"MEAN_MOTION_DDOT":0}]
