COSMOS 2251 DEB         
1 33982U 93036FR  26073.38154310  .00003131  00000+0  62210-3 0  9990
2 33982  74.0711 185.2685 0075461 207.8364 214.9119 14.60783290904971
COSMOS 2251 DEB         
1 33983U 93036FS  26073.18449391  .00001806  00000+0  46152-3 0  9999
2 33983  74.0529 335.2330 0019257  53.8511  65.0730 14.51093807899556
COSMOS 2251 DEB         
1 33984U 93036FT  26073.51343102  .00005417  00000+0  95922-3 0  9991
2 33984  74.0089 169.7529 0024601 335.7081  39.9299 14.67369526904122
COSMOS 2251 DEB         
1 33986U 93036FV  26072.87010654  .00001771  00000+0  52352-3 0  9993
2 33986  74.0353 133.3364 0041144 189.9098 287.8664 14.43721511893431
COSMOS 2251 DEB         
1 33990U 93036FZ  26073.61185961  .00000586  00000+0  57066-3 0  9995
2 33990  73.9274 138.4925 0404491 142.0510  18.9198 13.50155768839697
COSMOS 2251 DEB         
1 33992U 93036GB  26073.64602800  .00005107  00000+0  89302-3 0  9998
2 33992  74.0240 160.3349 0054850 256.4553 264.1961 14.67151215904727
COSMOS 2251 DEB         
1 33994U 93036GD  26073.62174644  .00000338  00000+0  11232-3 0  9996
2 33994  74.0453  20.3653 0022290 136.7956  41.1999 14.41288160897433
COSMOS 2251 DEB         
1 33995U 93036GE  26073.62218631  .00002281  00000+0  78864-3 0  9995
2 33995  74.0624 311.1878 0060194 301.7413  57.7881 14.35302329888374
COSMOS 2251 DEB         
1 33999U 93036GJ  26073.02238933  .00015183  00000+0  17130-2 0  9993
2 33999  73.9171  48.3730 0046549 278.7366  80.8541 14.85782425906057
COSMOS 2251 DEB         
1 34001U 93036GL  26073.55510028  .00000389  00000+0  13913-3 0  9992
2 34001  74.0366 112.7479 0020084 179.7936 331.6463 14.37215154894654
COSMOS 2251 DEB         
1 34003U 93036GN  26073.57563246  .00002705  00000+0  17950-2 0  9994
2 34003  74.0769 130.5022 0278767 222.0599 135.8829 13.84659094856963
COSMOS 2251 DEB         
1 34004U 93036GP  26073.59468778  .00004209  00000+0  10874-2 0  9990
2 34004  74.0350 140.7449 0028882 137.7316 222.6078 14.50000077893615
COSMOS 2251 DEB         
1 34005U 93036GQ  26073.30521216  .00000385  00000+0  12934-3 0  9998
2 34005  74.0453  44.4577 0019730 146.3628 282.3243 14.40388264896971
COSMOS 2251 DEB         
1 34006U 93036GR  26073.66011051  .00053232  00000+0  38104-2 0  9994
2 34006  74.0514 316.8835 0010991 213.2510 177.2975 15.04099178900465
COSMOS 2251 DEB         
1 34007U 93036GS  26073.61220633  .00004474  00000+0  81500-3 0  9991
2 34007  74.0193 169.9266 0047696 281.2828  78.2983 14.65628328904254
COSMOS 2251 DEB         
1 34008U 93036GT  26073.58004613  .00000287  00000+0  11337-3 0  9995
2 34008  74.0350 162.6719 0022628 140.7657 332.7340 14.33218246892801
